SL-16 R/B               
1 22566U 93016B   26054.92719260  .00000109  00000+0  80600-4 0  9990
2 22566  71.0045 244.0881 0010920 333.1667  26.8890 14.15300421700223
COSMOS 2242             
1 22626U 93024A   26055.12949438  .00001704  00000+0  14747-3 0  9991
2 22626  82.5167 279.6891 0016290 356.3726   3.7375 14.96487409778369
SL-16 R/B               
1 22803U 93059B   26055.27821169  .00000239  00000+0  14171-3 0  9995
2 22803  70.9902  39.4076 0019048 234.9776 124.9561 14.17228698677638
ARIANE 40 R/B           
1 22830U 93061H   26055.22125544  .00000199  00000+0  88706-4 0  9998
2 22830  98.4946 124.3729 0009915 329.1284  30.9316 14.32853025692178
COSMOS 2278             
1 23087U 94023A   26055.16019114  .00000387  00000+0  22667-3 0  9992
2 23087  71.0524 203.4013 0007320  40.0881 320.0781 14.14369142642892
SL-16 R/B               
1 23088U 94023B   26055.28346648  .00000137  00000+0  95576-4 0  9994
2 23088  70.9990  99.0439 0005195 298.2381  61.8217 14.15012308644198
SL-16 R/B               
1 23343U 94074B   26055.06185862  .00000445  00000+0  66298-4 0  9990
2 23343  97.7129  86.4304 0005125 264.6737 149.1931 14.79389989685234
SL-16 R/B               
1 23405U 94077B   26055.27029701 -.00000074  00000+0 -13405-4 0  9996
2 23405  70.9845  20.7184 0003744 227.1630 132.9179 14.15564052614332
ARIANE 40+ R/B          
1 23561U 95021B   26055.19493587  .00000263  00000+0  97822-4 0  9990
2 23561  98.4526 126.8584 0006994 173.2669 244.3024 14.39761440617304
SL-16 R/B               
1 23705U 95058B   26054.71127381 -.00000227  00000+0 -91570-4 0  9999
2 23705  71.0203 209.6004 0011237 150.5114 209.6645 14.15494458565872
SL-16 R/B               
1 24298U 96051B   26054.86009152  .00000101  00000+0  81064-4 0  9998
2 24298  70.7584 204.5091 0016317 168.0005 192.1507 14.12411661519699
ORBVIEW 2 (SEASTAR)     
1 24883U 97037A   26054.89563385  .00000280  00000+0  11366-3 0  9994
2 24883  98.8543 218.8438 0003205  99.6284 260.5263 14.35482892506490
