CCSDS_OMM_VERS = 2.0
CREATION_DATE  = 
ORIGINATOR     = 

OBJECT_NAME    = SL-16 R/B
OBJECT_ID      = 1993-016B
CENTER_NAME    = EARTH
REF_FRAME      = TEME
TIME_SYSTEM    = UTC
MEAN_ELEMENT_THEORY = SGP/SGP4

EPOCH          = 2026-02-23T22:15:09.440640
MEAN_MOTION    = 14.15300421
ECCENTRICITY   = .00109201
INCLINATION    = 71.0045
RA_OF_ASC_NODE = 244.0881
ARG_OF_PERICENTER = 333.1667
MEAN_ANOMALY   = 26.8890

EPHEMERIS_TYPE = 0
CLASSIFICATION_TYPE = U
NORAD_CAT_ID   = 22566
ELEMENT_SET_NO = 999
REV_AT_EPOCH   = 70022
BSTAR          = .80599567E-4
MEAN_MOTION_DOT = .109E-5
MEAN_MOTION_DDOT = 0

CCSDS_OMM_VERS = 2.0
CREATION_DATE  = 
ORIGINATOR     = 

OBJECT_NAME    = COSMOS 2242
OBJECT_ID      = 1993-024A
CENTER_NAME    = EARTH
REF_FRAME      = TEME
TIME_SYSTEM    = UTC
MEAN_ELEMENT_THEORY = SGP/SGP4

EPOCH          = 2026-02-24T03:06:28.314432
MEAN_MOTION    = 14.96487409
ECCENTRICITY   = .00162902
INCLINATION    = 82.5167
RA_OF_ASC_NODE = 279.6891
ARG_OF_PERICENTER = 356.3726
MEAN_ANOMALY   = 3.7375

EPHEMERIS_TYPE = 0
CLASSIFICATION_TYPE = U
NORAD_CAT_ID   = 22626
ELEMENT_SET_NO = 999
REV_AT_EPOCH   = 77836
BSTAR          = .14747305E-3
MEAN_MOTION_DOT = .1704E-4
MEAN_MOTION_DDOT = 0

CCSDS_OMM_VERS = 2.0
CREATION_DATE  = 
ORIGINATOR     = 

OBJECT_NAME    = SL-16 R/B
OBJECT_ID      = 1993-059B
CENTER_NAME    = EARTH
REF_FRAME      = TEME
TIME_SYSTEM    = UTC
MEAN_ELEMENT_THEORY = SGP/SGP4

EPOCH          = 2026-02-24T06:40:37.490016
MEAN_MOTION    = 14.17228698
ECCENTRICITY   = .00190487
INCLINATION    = 70.9902
RA_OF_ASC_NODE = 39.4076
ARG_OF_PERICENTER = 234.9776
MEAN_ANOMALY   = 124.9561

EPHEMERIS_TYPE = 0
CLASSIFICATION_TYPE = U
NORAD_CAT_ID   = 22803
ELEMENT_SET_NO = 999
REV_AT_EPOCH   = 67763
BSTAR          = .1417148E-3
MEAN_MOTION_DOT = .239E-5
MEAN_MOTION_DDOT = 0

CCSDS_OMM_VERS = 2.0
CREATION_DATE  = 
ORIGINATOR     = 

OBJECT_NAME    = ARIANE 40 R/B
OBJECT_ID      = 1993-061H
CENTER_NAME    = EARTH
REF_FRAME      = TEME
TIME_SYSTEM    = UTC
MEAN_ELEMENT_THEORY = SGP/SGP4

EPOCH          = 2026-02-24T05:18:36.470016
MEAN_MOTION    = 14.32853025
ECCENTRICITY   = .00099151
INCLINATION    = 98.4946
RA_OF_ASC_NODE = 124.3729
ARG_OF_PERICENTER = 329.1284
MEAN_ANOMALY   = 30.9316

EPHEMERIS_TYPE = 0
CLASSIFICATION_TYPE = U
NORAD_CAT_ID   = 22830
ELEMENT_SET_NO = 999
REV_AT_EPOCH   = 69217
BSTAR          = .88706325E-4
MEAN_MOTION_DOT = .199E-5
MEAN_MOTION_DDOT = 0

CCSDS_OMM_VERS = 2.0
CREATION_DATE  = 
ORIGINATOR     = 

OBJECT_NAME    = COSMOS 2278
OBJECT_ID      = 1994-023A
CENTER_NAME    = EARTH
REF_FRAME      = TEME
TIME_SYSTEM    = UTC
MEAN_ELEMENT_THEORY = SGP/SGP4

EPOCH          = 2026-02-24T03:50:40.514496
MEAN_MOTION    = 14.14369142
ECCENTRICITY   = .00073202
INCLINATION    = 71.0524
RA_OF_ASC_NODE = 203.4013
ARG_OF_PERICENTER = 40.0881
MEAN_ANOMALY   = 320.0781

EPHEMERIS_TYPE = 0
CLASSIFICATION_TYPE = U
NORAD_CAT_ID   = 23087
ELEMENT_SET_NO = 999
REV_AT_EPOCH   = 64289
BSTAR          = .22667488E-3
MEAN_MOTION_DOT = .387E-5
MEAN_MOTION_DDOT = 0

CCSDS_OMM_VERS = 2.0
CREATION_DATE  = 
ORIGINATOR     = 

OBJECT_NAME    = SL-16 R/B
OBJECT_ID      = 1994-023B
CENTER_NAME    = EARTH
REF_FRAME      = TEME
TIME_SYSTEM    = UTC
MEAN_ELEMENT_THEORY = SGP/SGP4

EPOCH          = 2026-02-24T06:48:11.503872
MEAN_MOTION    = 14.15012308
ECCENTRICITY   = .00051951
INCLINATION    = 70.9990
RA_OF_ASC_NODE = 99.0439
ARG_OF_PERICENTER = 298.2381
MEAN_ANOMALY   = 61.8217

EPHEMERIS_TYPE = 0
CLASSIFICATION_TYPE = U
NORAD_CAT_ID   = 23088
ELEMENT_SET_NO = 999
REV_AT_EPOCH   = 64419
BSTAR          = .95576483E-4
MEAN_MOTION_DOT = .137E-5
MEAN_MOTION_DDOT = 0

CCSDS_OMM_VERS = 2.0
CREATION_DATE  = 
ORIGINATOR     = 

OBJECT_NAME    = SL-16 R/B
OBJECT_ID      = 1994-074B
CENTER_NAME    = EARTH
REF_FRAME      = TEME
TIME_SYSTEM    = UTC
MEAN_ELEMENT_THEORY = SGP/SGP4

EPOCH          = 2026-02-24T01:29:04.584768
MEAN_MOTION    = 14.79389989
ECCENTRICITY   = .00051255
INCLINATION    = 97.7129
RA_OF_ASC_NODE = 86.4304
ARG_OF_PERICENTER = 264.6737
MEAN_ANOMALY   = 149.1931

EPHEMERIS_TYPE = 0
CLASSIFICATION_TYPE = U
NORAD_CAT_ID   = 23343
ELEMENT_SET_NO = 999
REV_AT_EPOCH   = 68523
BSTAR          = .66298181E-4
MEAN_MOTION_DOT = .445E-5
MEAN_MOTION_DDOT = 0

CCSDS_OMM_VERS = 2.0
CREATION_DATE  = 
ORIGINATOR     = 

OBJECT_NAME    = SL-16 R/B
OBJECT_ID      = 1994-077B
CENTER_NAME    = EARTH
REF_FRAME      = TEME
TIME_SYSTEM    = UTC
MEAN_ELEMENT_THEORY = SGP/SGP4

EPOCH          = 2026-02-24T06:29:13.661664
MEAN_MOTION    = 14.15564052
ECCENTRICITY   = .00037443
INCLINATION    = 70.9845
RA_OF_ASC_NODE = 20.7184
ARG_OF_PERICENTER = 227.1630
MEAN_ANOMALY   = 132.9179

EPHEMERIS_TYPE = 0
CLASSIFICATION_TYPE = U
NORAD_CAT_ID   = 23405
ELEMENT_SET_NO = 999
REV_AT_EPOCH   = 61433
BSTAR          = -.13405414E-4
MEAN_MOTION_DOT = -.74E-6
MEAN_MOTION_DDOT = 0

CCSDS_OMM_VERS = 2.0
CREATION_DATE  = 
ORIGINATOR     = 

OBJECT_NAME    = ARIANE 40+ R/B
OBJECT_ID      = 1995-021B
CENTER_NAME    = EARTH
REF_FRAME      = TEME
TIME_SYSTEM    = UTC
MEAN_ELEMENT_THEORY = SGP/SGP4

EPOCH          = 2026-02-24T04:40:42.459168
MEAN_MOTION    = 14.39761440
ECCENTRICITY   = .00069944
INCLINATION    = 98.4526
RA_OF_ASC_NODE = 126.8584
ARG_OF_PERICENTER = 173.2669
MEAN_ANOMALY   = 244.3024

EPHEMERIS_TYPE = 0
CLASSIFICATION_TYPE = U
NORAD_CAT_ID   = 23561
ELEMENT_SET_NO = 999
REV_AT_EPOCH   = 61730
BSTAR          = .97822055E-4
MEAN_MOTION_DOT = .263E-5
MEAN_MOTION_DDOT = 0

CCSDS_OMM_VERS = 2.0
CREATION_DATE  = 
ORIGINATOR     = 

OBJECT_NAME    = SL-16 R/B
OBJECT_ID      = 1995-058B
CENTER_NAME    = EARTH
REF_FRAME      = TEME
TIME_SYSTEM    = UTC
MEAN_ELEMENT_THEORY = SGP/SGP4

EPOCH          = 2026-02-23T17:04:14.057184
MEAN_MOTION    = 14.15494458
ECCENTRICITY   = .00112377
INCLINATION    = 71.0203
RA_OF_ASC_NODE = 209.6004
ARG_OF_PERICENTER = 150.5114
MEAN_ANOMALY   = 209.6645

EPHEMERIS_TYPE = 0
CLASSIFICATION_TYPE = U
NORAD_CAT_ID   = 23705
ELEMENT_SET_NO = 999
REV_AT_EPOCH   = 56587
BSTAR          = -.91570445E-4
MEAN_MOTION_DOT = -.227E-5
MEAN_MOTION_DDOT = 0

CCSDS_OMM_VERS = 2.0
CREATION_DATE  = 
ORIGINATOR     = 

OBJECT_NAME    = SL-16 R/B
OBJECT_ID      = 1996-051B
CENTER_NAME    = EARTH
REF_FRAME      = TEME
TIME_SYSTEM    = UTC
MEAN_ELEMENT_THEORY = SGP/SGP4

EPOCH          = 2026-02-23T20:38:31.907328
MEAN_MOTION    = 14.12411661
ECCENTRICITY   = .00163175
INCLINATION    = 70.7584
RA_OF_ASC_NODE = 204.5091
ARG_OF_PERICENTER = 168.0005
MEAN_ANOMALY   = 192.1507

EPHEMERIS_TYPE = 0
CLASSIFICATION_TYPE = U
NORAD_CAT_ID   = 24298
ELEMENT_SET_NO = 999
REV_AT_EPOCH   = 51969
BSTAR          = .81063914E-4
MEAN_MOTION_DOT = .101E-5
MEAN_MOTION_DDOT = 0

CCSDS_OMM_VERS = 2.0
CREATION_DATE  = 
ORIGINATOR     = 

OBJECT_NAME    = ORBVIEW 2 (SEASTAR)
OBJECT_ID      = 1997-037A
CENTER_NAME    = EARTH
REF_FRAME      = TEME
TIME_SYSTEM    = UTC
MEAN_ELEMENT_THEORY = SGP/SGP4

EPOCH          = 2026-02-23T21:29:42.764640
MEAN_MOTION    = 14.35482892
ECCENTRICITY   = .00032053
INCLINATION    = 98.8543
RA_OF_ASC_NODE = 218.8438
ARG_OF_PERICENTER = 99.6284
MEAN_ANOMALY   = 260.5263

EPHEMERIS_TYPE = 0
CLASSIFICATION_TYPE = U
NORAD_CAT_ID   = 24883
ELEMENT_SET_NO = 999
REV_AT_EPOCH   = 50649
BSTAR          = .11366132E-3
MEAN_MOTION_DOT = .28E-5
MEAN_MOTION_DDOT = 0

